NORAD_CAT_ID,OBJECT_NAME,OBJECT_TYPE,EPOCH,MEAN_MOTION,ECCENTRICITY,INCLINATION,RA_OF_ASC_NODE,ARG_OF_PERICENTER,MEAN_ANOMALY,BSTAR,MEAN_MOTION_DOT,MEAN_MOTION_DDOT,TLE_LINE0,TLE_LINE1,TLE_LINE2,SEMIMAJOR_AXIS,PERIOD,APOGEE,PERIGEE,DECAYED
53706.0,STARLINK-4716,PAYLOAD,2024-03-16 17:59:46,15.08843829,0.0001324,53.2169,249.5791,94.2226,265.8917,8.6242e-05,1.085e-05,0.0,0 STARLINK-4716,1 53706U 22107G   24076.74984716  .00001085  00000-0  86242-4 0  9998,2 53706  53.2169 249.5791 0001324  94.2226 265.8917 15.08843829 84964,6917.869,95.437,540.65,538.818,0.0
53706.0,STARLINK-4716,PAYLOAD,2024-03-17 11:29:01,15.08839812,0.0001535,53.2173,246.3105,94.6134,265.5033,6.6652e-05,7.73e-06,0.0,0 STARLINK-4716,1 53706U 22107G   24077.47849115  .00000773  00000-0  66652-4 0  9998,2 53706  53.2173 246.3105 0001535  94.6134 265.5033 15.08839812 85075,6917.881,95.438,540.808,538.684,0.0
53706.0,STARLINK-4716,PAYLOAD,2024-03-17 14:39:47,15.08839537,0.0001539,53.2175,245.7152,100.7707,259.3459,5.3442e-05,5.63e-06,0.0,0 STARLINK-4716,1 53706U 22107G   24077.61097120  .00000563  00000-0  53442-4 0  9995,2 53706  53.2175 245.7152 0001539 100.7707 259.3459 15.08839537 85843,6917.882,95.438,540.811,538.682,0.0
53706.0,STARLINK-4716,PAYLOAD,2024-03-17 17:50:34,15.08839748,0.000149,53.2178,245.1204,102.985,257.1309,4.498e-05,4.28e-06,0.0,0 STARLINK-4716,1 53706U 22107G   24077.74345130  .00000428  00000-0  44980-4 0  9993,2 53706  53.2178 245.1204 0001490 102.9850 257.1309 15.08839748 85863,6917.881,95.438,540.777,538.715,0.0
53706.0,STARLINK-4716,PAYLOAD,2024-03-18 11:19:48,15.08838555,0.000148,53.2179,241.8496,101.3433,258.7725,2.9265e-05,1.78e-06,0.0,0 STARLINK-4716,1 53706U 22107G   24078.47209303  .00000178  00000-0  29265-4 0  9996,2 53706  53.2179 241.8496 0001480 101.3433 258.7725 15.08838555 85975,6917.885,95.438,540.774,538.726,0.0
53706.0,STARLINK-4716,PAYLOAD,2024-03-19 09:35:12,15.08842342,0.0001397,53.218,237.6863,89.8248,270.2904,8.671e-05,1.092e-05,0.0,0 STARLINK-4716,1 53706U 22107G   24079.39945031  .00001092  00000-0  86710-4 0  9997,2 53706  53.2180 237.6863 0001397  89.8248 270.2904 15.08842342 85369,6917.873,95.437,540.705,538.772,0.0
53706.0,STARLINK-4716,PAYLOAD,2024-03-20 09:26:00,15.08833142,0.000159,53.2179,233.2248,100.1534,259.9637,1.2619e-05,-8.7e-07,0.0,0 STARLINK-4716,1 53706U 22107G   24080.39306065 -.00000087  00000-0  12619-4 0  9998,2 53706  53.2179 233.2248 0001590 100.1534 259.9637 15.08833142 85518,6917.901,95.438,540.866,538.666,0.0
53706.0,STARLINK-4716,PAYLOAD,2024-03-20 14:12:09,15.08833225,0.0001336,53.2171,232.333,93.3523,266.7622,8.5924e-06,-1.51e-06,0.0,0 STARLINK-4716,1 53706U 22107G   24080.59178195 -.00000151  00000-0  85924-5 0  9993,2 53706  53.2171 232.3330 0001336  93.3523 266.7622 15.08833225 86299,6917.901,95.438,540.69,538.842,0.0
53706.0,STARLINK-4716,PAYLOAD,2024-03-20 17:22:56,15.08835409,0.0001521,53.2174,231.7376,93.6152,266.5015,3.6874e-05,2.99e-06,0.0,0 STARLINK-4716,1 53706U 22107G   24080.72426098  .00000299  00000-0  36874-4 0  9997,2 53706  53.2174 231.7376 0001521  93.6152 266.5015 15.08835409 86315,6917.894,95.438,540.812,538.707,0.0
53706.0,STARLINK-4716,PAYLOAD,2024-03-21 14:02:57,15.08837058,0.0001514,53.2171,227.8715,84.4918,275.6246,1.9109e-05,1.6e-07,0.0,0 STARLINK-4716,1 53706U 22107G   24081.58538407  .00000016  00000-0  19109-4 0  9999,2 53706  53.2171 227.8715 0001514  84.4918 275.6246 15.08837058 86448,6917.889,95.438,540.802,538.707,0.0
53706.0,STARLINK-4716,PAYLOAD,2024-03-21 17:13:42,15.08843705,0.0001373,53.2159,227.2752,81.1689,278.9458,0.00011664,1.569e-05,0.0,0 STARLINK-4716,1 53706U 22107G   24081.71785636  .00001569  00000-0  11664-3 0  9993,2 53706  53.2159 227.2752 0001373  81.1689 278.9458 15.08843705 85717,6917.869,95.437,540.684,538.784,0.0
53706.0,STARLINK-4716,PAYLOAD,2024-03-22 13:53:43,15.088413,0.0001557,53.2163,223.4083,118.5191,241.5958,0.00012205,1.655e-05,0.0,0 STARLINK-4716,1 53706U 22107G   24082.57897940  .00001655  00000-0  12205-3 0  9998,2 53706  53.2163 223.4083 0001557 118.5191 241.5958 15.08841300 86591,6917.876,95.437,540.819,538.664,0.0
53706.0,STARLINK-4716,PAYLOAD,2024-03-22 17:04:29,15.0887291,0.0001539,53.2164,222.816,79.0309,281.0856,0.00065152,0.00010105,0.0,0 STARLINK-4716,1 53706U 22107G   24082.71144885  .00010105  00000-0  65152-3 0  9996,2 53706  53.2164 222.8160 0001539  79.0309 281.0856 15.08872910 85869,6917.78,95.435,540.709,538.58,0.0
53706.0,STARLINK-4716,PAYLOAD,2024-03-23 13:44:30,15.0883044,0.0001284,53.2168,218.9493,104.2235,255.89,-0.00019834,-3.442e-05,0.0,0 STARLINK-4716,1 53706U 22107G   24083.57257090 -.00003442  00000-0 -19834-3 0  9998,2 53706  53.2168 218.9493 0001284 104.2235 255.8900 15.08830440 85999,6917.91,95.438,540.663,538.886,0.0
53706.0,STARLINK-4716,PAYLOAD,2024-03-23 15:19:53,15.08834574,0.0001517,53.2168,218.6502,104.2935,255.8226,-0.00023049,-3.954e-05,0.0,0 STARLINK-4716,1 53706U 22107G   24083.63880812 -.00003954  00000-0 -23049-3 0  9990,2 53706  53.2168 218.6502 0001517 104.2935 255.8226 15.08834574 86751,6917.897,95.438,540.811,538.713,0.0
53706.0,STARLINK-4716,PAYLOAD,2024-03-24 13:35:16,15.08853724,0.0001482,53.2181,214.4989,88.7488,271.3674,-0.00022912,-3.934e-05,0.0,0 STARLINK-4716,1 53706U 22107G   24084.56616510 -.00003934  00000-0 -22912-3 0  9991,2 53706  53.2181 214.4989 0001482  88.7488 271.3674 15.08853724 86140,6917.838,95.437,540.729,538.678,0.0
53706.0,STARLINK-4716,PAYLOAD,2024-03-24 15:10:39,15.08854574,0.0001595,53.2158,214.1948,83.1393,276.9781,-3.9992e-05,-9.25e-06,0.0,0 STARLINK-4716,1 53706U 22107G   24084.63240212 -.00000925  00000-0 -39992-4 0  9995,2 53706  53.2158 214.1948 0001595  83.1393 276.9781 15.08854574 86903,6917.836,95.437,540.804,538.597,0.0
53706.0,STARLINK-4716,PAYLOAD,2024-03-25 13:26:04,15.08832082,0.0001448,53.2172,210.0322,100.198,259.9176,0.00027574,4.102e-05,0.0,0 STARLINK-4716,1 53706U 22107G   24085.55977482  .00004102  00000-0  27574-3 0  9994,2 53706  53.2172 210.0322 0001448 100.1980 259.9176 15.08832082 86290,6917.905,95.438,540.771,538.768,0.0
53706.0,STARLINK-4716,PAYLOAD,2024-03-25 18:12:13,15.08839228,0.0001467,53.2174,209.1359,102.3279,257.7878,0.00040386,6.145e-05,0.0,0 STARLINK-4716,1 53706U 22107G   24085.75849330  .00006145  00000-0  40386-3 0  9991,2 53706  53.2174 209.1359 0001467 102.3279 257.7878 15.08839228 87078,6917.883,95.438,540.763,538.733,0.0
53706.0,STARLINK-4716,PAYLOAD,2024-03-26 13:16:53,15.08810557,0.0001638,53.2168,205.5685,106.2186,253.8986,-0.00027657,-4.683e-05,0.0,0 STARLINK-4716,1 53706U 22107G   24086.55339408 -.00004683  00000-0 -27657-3 0  9993,2 53706  53.2168 205.5685 0001638 106.2186 253.8986 15.08810557 86444,6917.97,95.439,540.969,538.702,0.0
53706.0,STARLINK-4716,PAYLOAD,2024-03-26 14:52:16,15.08816515,0.0001347,53.2163,205.2733,89.7475,270.3671,-0.0001351,-2.436e-05,0.0,0 STARLINK-4716,1 53706U 22107G   24086.61963447 -.00002436  00000-0 -13510-3 0  9993,2 53706  53.2163 205.2733 0001347  89.7475 270.3671 15.08816515 87203,6917.952,95.439,540.749,538.885,0.0
53706.0,STARLINK-4716,PAYLOAD,2024-03-27 00:24:35,15.08825485,0.0001435,53.2169,203.4887,97.2321,262.8834,0.00015756,2.22e-05,0.0,0 STARLINK-4716,1 53706U 22107G   24087.01707626  .00002220  00000-0  15756-3 0  9996,2 53706  53.2169 203.4887 0001435  97.2321 262.8834 15.08825485 86517,6917.925,95.438,540.782,538.797,0.0
53706.0,STARLINK-4716,PAYLOAD,2024-03-27 14:43:03,15.08853877,0.0001399,53.2171,200.8135,105.8366,254.2781,0.0011966,0.00018814,0.0,0 STARLINK-4716,1 53706U 22107G   24087.61323801  .00018814  00000-0  11966-2 0  9995,2 53706  53.2171 200.8135 0001399 105.8366 254.2781 15.08853877 87356,6917.838,95.437,540.671,538.735,0.0
53706.0,STARLINK-4716,PAYLOAD,2024-03-28 12:58:26,15.08859562,0.000187,53.2173,196.6508,98.7891,261.3313,0.00024079,3.548e-05,0.0,0 STARLINK-4716,1 53706U 22107G   24088.54058837  .00003548  00000-0  24079-3 0  9990,2 53706  53.2173 196.6508 0001870  98.7891 261.3313 15.08859562 86740,6917.821,95.436,540.979,538.392,0.0
53706.0,STARLINK-4716,PAYLOAD,2024-03-29 12:49:13,15.08850691,0.0001627,53.2162,192.1906,92.1188,267.999,0.00011871,1.602e-05,0.0,0 STARLINK-4716,1 53706U 22107G   24089.53418365  .00001602  00000-0  11871-3 0  9991,2 53706  53.2162 192.1906 0001627  92.1188 267.9990 15.08850691 86891,6917.848,95.437,540.838,538.587,0.0
53706.0,STARLINK-4716,PAYLOAD,2024-03-30 12:40:00,15.08842893,0.0001646,53.2164,187.7296,90.3403,269.7778,-6.4669e-08,-2.89e-06,0.0,0 STARLINK-4716,1 53706U 22107G   24090.52778670 -.00000289  00000-0 -64669-7 0  9999,2 53706  53.2164 187.7296 0001646  90.3403 269.7778 15.08842893 87043,6917.872,95.437,540.875,538.598,0.0
53706.0,STARLINK-4716,PAYLOAD,2024-03-31 12:30:47,15.08849515,0.0001427,53.217,183.2675,97.0558,263.0596,1.9732e-05,2.6e-07,0.0,0 STARLINK-4716,1 53706U 22107G   24091.52138198  .00000026  00000-0  19732-4 0  9990,2 53706  53.2170 183.2675 0001427  97.0558 263.0596 15.08849515 87946,6917.851,95.437,540.703,538.729,0.0
53706.0,STARLINK-4716,PAYLOAD,2024-04-01 12:21:35,15.08832136,0.0001393,53.217,178.8085,82.6219,277.4931,2.6273e-05,1.3e-06,0.0,0 STARLINK-4716,1 53706U 22107G   24092.51499717  .00000130  00000-0  26273-4 0  9991,2 53706  53.2170 178.8085 0001393  82.6219 277.4931 15.08832136 87344,6917.904,95.438,540.733,538.806,0.0
53706.0,STARLINK-4716,PAYLOAD,2024-04-02 12:12:21,15.08851239,0.0001338,53.2165,174.3457,86.8478,273.2667,0.00010256,1.345e-05,0.0,0 STARLINK-4716,1 53706U 22107G   24093.50858418  .00001345  00000-0  10256-3 0  9990,2 53706  53.2165 174.3457 0001338  86.8478 273.2667 15.08851239 87495,6917.846,95.437,540.637,538.785,0.0
53706.0,STARLINK-4716,PAYLOAD,2024-04-02 21:44:40,15.08845227,0.0001468,53.2175,172.5632,90.5904,269.5257,9.974e-06,-1.29e-06,0.0,0 STARLINK-4716,1 53706U 22107G   24093.90602789 -.00000129  00000-0  99740-5 0  9999,2 53706  53.2175 172.5632 0001468  90.5904 269.5257 15.08845227 88305,6917.864,95.437,540.745,538.714,0.0
